GLOBALSTAR M084         
1 38040U 11080A   23267.20464731 -.00000095  00000+0  50043-4 0  9992
2 38040  52.0003 172.4613 0000870  74.7318  84.2184 12.62266117542851
GLOBALSTAR M080         
1 38041U 11080B   23267.17646407 -.00000092  00000+0  66851-4 0  9992
2 38041  52.0054 173.9308 0001033  65.7883  85.4314 12.62264620542972
GLOBALSTAR M082         
1 38042U 11080C   23267.10699904 -.00000094  00000+0  53203-4 0  9995
2 38042  52.0062 129.5214 0000141  95.2360  40.5818 12.62271048543673
GLOBALSTAR M092         
1 38043U 11080D   23267.32250250 -.00000093  00000+0  61581-4 0  9994
2 38043  52.0074 219.2068 0000734  89.3726  66.5139 12.62272124542151
GLOBALSTAR M090         
1 38044U 11080E   23267.35191866 -.00000098  00000+0  33083-4 0  9996
2 38044  51.9869 123.3986 0000512  58.5539 350.8958 12.62277770543825
GLOBALSTAR M086         
1 38045U 11080F   23267.61150159 -.00000094  00000+0  54429-4 0  9999
2 38045  51.9882 123.1087 0001384  29.7175   0.5614 12.62262663543806
GLOBALSTAR M097         
1 39072U 13005A   23267.55242206 -.00000107  00000+0 -18328-4 0  9991
2 39072  52.0067  37.1935 0000432  78.1811 281.9104 12.62270687491040
GLOBALSTAR M093         
1 39073U 13005B   23267.52584283 -.00000103  00000+0  30949-5 0  9992
2 39073  51.9833  31.5882 0000391  47.7141 312.3758 12.62266712490992
